{"spkid": "50738936", "covariance": {"epoch": "2457836.5", "data": [["1.104150976416977E-14", "-9.894246545493561E-15", "7.817393719854398E-13", "2.79542169859521E-13", "8.182069843700697E-14", "-5.756858977459813E-13"], ["-9.894246545493561E-15", "9.056728212718301E-15", "-6.855784175417149E-13", "-2.741162833093077E-13", "-1.950514788678686E-13", "1.041061529060148E-13"], ["7.817393719854398E-13", "-6.855784175417149E-13", "9.015530941523176E-11", "1.796626519960538E-11", "2.677252007636169E-11", "2.436528341375869E-11"], ["2.79542169859521E-13", "-2.741162833093077E-13", "1.796626519960538E-11", "2.732171711894179E-11", "3.606202171926658E-13", "5.96789488552461E-11"], ["8.182069843700697E-14", "-1.950514788678686E-13", "2.677252007636169E-11", "3.606202171926658E-13", "1.226735873747887E-10", "3.226809175157048E-10"], ["-5.756858977459813E-13", "1.041061529060148E-13", "2.436528341375869E-11", "5.96789488552461E-11", "3.226809175157048E-10", "1.797473578902472E-9"]], "elements": [{"label": "e", "title": "eccentricity", "value": ".2559163341664045", "units": null, "sigma": 1.05078588514358e-07, "name": "e"}, {"label": "q", "name": "q", "sigma": 9.51668440830014e-08, "value": ".8061766141059665", "title": "perihelion distance", "units": "au"}, {"units": "TDB", "value": "2457854.873846530935", "title": "time of perihelion passage", "name": "tp", "sigma": 9.4950149770936e-06, "label": "tp"}, {"title": "longitude of the ascending node", "value": "266.1843864286426", "units": "deg", "sigma": 5.22701799489363e-06, "name": "om", "label": "node"}, {"name": "w", "sigma": 1.10758109127408e-05, "units": "deg", "title": "argument of perihelion", "value": "267.7924659906429", "label": "peri"}, {"label": "i", "units": "deg", "title": "inclination", "value": "6.658297707187264", "sigma": 4.23966222581761e-05, "name": "i"}], "labels": ["e", "q", "tp", "node", "peri", "i"]}, "elements": [{"label": "e", "sigma": "1.0301E-7", "name": "e", "title": "eccentricity", "value": ".2558862928049407", "units": null}, {"label": "a", "sigma": "2.5668E-8", "name": "a", "value": "1.084067434579035", "title": "semi-major axis", "units": "au"}, {"sigma": "9.6104E-8", "name": "q", "title": "perihelion distance", "value": ".8066694375940431", "units": "au", "label": "q"}, {"label": "i", "name": "i", "sigma": "4.2375E-5", "units": "deg", "value": "6.657176877518332", "title": "inclination; angle with respect to x-y ecliptic plane"}, {"title": "longitude of the ascending node", "value": "266.1002633240056", "units": "deg", "sigma": "5.2697E-6", "name": "om", "label": "node"}, {"label": "peri", "name": "w", "sigma": "1.1017E-5", "title": "argument of perihelion", "value": "267.8956901561797", "units": "deg"}, {"title": "mean anomaly", "value": "41.96994532847005", "units": "deg", "name": "ma", "sigma": ".00013225", "label": "M"}, {"label": "tp", "title": "time of perihelion passage", "value": "2461152.436125479651", "units": "TDB", "name": "tp", "sigma": ".00014974"}, {"title": "sidereal orbital period", "value": "412.2710833170471", "units": "d", "sigma": "1.4642E-5", "name": "per", "label": "period"}, {"label": "n", "name": "n", "sigma": "3.1013E-8", "units": "deg/d", "value": ".8732118612431296", "title": "mean motion"}, {"name": "ad", "sigma": "3.2235E-8", "units": "au", "value": "1.361465431564026", "title": "aphelion distance", "label": "Q"}], "epoch": "2461200.5"}